{"type": "FeatureCollection", "features": [ {"type": "Feature", "properties": {"norad_id": 36550, "name": "COSMOS 2251 DEB", "group": "cosmos-2251-debris", "lat": 6.266169385909839, "lon": 178.87594941588003, "alt_km": 846.0897011271927, "timestamp": "2025-12-21T09:37:23.052288+00:00", "meta": {"OBJECT_NAME": "COSMOS 2251 DEB", "OBJECT_ID": "1993-036BDL", "EPOCH": "2025-12-18T21:01:50.103840", "MEAN_MOTION": 14.27217133, "ECCENTRICITY": 0.00780997, "INCLINATION": 74.0439, "RA_OF_ASC_NODE": 181.6412, "ARG_OF_PERICENTER": 230.9486, "MEAN_ANOMALY": 128.4696, "EPHEMERIS_TYPE": 0, "CLASSIFICATION_TYPE": "U", "NORAD_CAT_ID": 36550, "ELEMENT_SET_NO": 999, "REV_AT_EPOCH": 84683, "BSTAR": 0.00048644345, "MEAN_MOTION_DOT": 1.202e-05, "MEAN_MOTION_DDOT": 0}, "tle": {"line1": "1 36550U 93036BDL 25352.87627435  .00001202  00000+0  48644-3 0  9992", "line2": "2 36550  74.0439 181.6412 0078099 230.9486 128.4696 14.27217133846832"}}, "geometry": {"type": "Point", "coordinates": [178.87594941588003, 6.266169385909839]}}, {"type": "Feature", "properties": {"norad_id": 36551, "name": "COSMOS 2251 DEB", "group": "cosmos-2251-debris", "lat": -67.29226444027931, "lon": -139.44130496564395, "alt_km": 542.5717053128765, "timestamp": "2025-12-21T09:37:23.052298+00:00", "meta": {"OBJECT_NAME": "COSMOS 2251 DEB", "OBJECT_ID": "1993-036BDM", "EPOCH": "2025-12-20T18:06:50.617728", "MEAN_MOTION": 15.02792529, "ECCENTRICITY": 0.00510944, "INCLINATION": 73.8867, "RA_OF_ASC_NODE": 358.1943, "ARG_OF_PERICENTER": 305.9203, "MEAN_ANOMALY": 53.7248, "EPHEMERIS_TYPE": 0, "CLASSIFICATION_TYPE": "U", "NORAD_CAT_ID": 36551, "ELEMENT_SET_NO": 999, "REV_AT_EPOCH": 67052, "BSTAR": 0.00081561541, "MEAN_MOTION_DOT": 0.00011204, "MEAN_MOTION_DDOT": 0}, "tle": {"line1": "1 36551U 93036BDM 25354.75475252  .00011204  00000+0  81562-3 0  9999", "line2": "2 36551  73.8867 358.1943 0051094 305.9203  53.7248 15.02792529670526"}}, "geometry": {"type": "Point", "coordinates": [-139.44130496564395, -67.29226444027931]}}, {"type": "Feature", "properties": {"norad_id": 36557, "name": "COSMOS 2251 DEB", "group": "cosmos-2251-debris", "lat": -20.23378471886999, "lon": -64.7435481398526, "alt_km": 630.8212401771179, "timestamp": "2025-12-21T09:37:23.052308+00:00", "meta": {"OBJECT_NAME": "COSMOS 2251 DEB", "OBJECT_ID": "1993-036BDT", "EPOCH": "2025-12-16T15:02:26.530080", "MEAN_MOTION": 14.78433531, "ECCENTRICITY": 0.00216791, "INCLINATION": 73.9792, "RA_OF_ASC_NODE": 118.5873, "ARG_OF_PERICENTER": 270.9403, "MEAN_ANOMALY": 88.9288, "EPHEMERIS_TYPE": 0, "CLASSIFICATION_TYPE": "U", "NORAD_CAT_ID": 36557, "ELEMENT_SET_NO": 999, "REV_AT_EPOCH": 33954, "BSTAR": 0.0025552637, "MEAN_MOTION_DOT": 0.00018721, "MEAN_MOTION_DDOT": 0}, "tle": {"line1": "1 36557U 93036BDT 25350.62669595  .00018721  00000+0  25553-2 0  9990", "line2": "2 36557  73.9792 118.5873 0021679 270.9403  88.9288 14.78433531339544"}}, "geometry": {"type": "Point", "coordinates": [-64.7435481398526, -20.23378471886999]}}, {"type": "Feature", "properties": {"norad_id": 36558, "name": "COSMOS 2251 DEB", "group": "cosmos-2251-debris", "lat": 36.68623797466569, "lon": -54.16216998129537, "alt_km": 704.1260638115427, "timestamp": "2025-12-21T09:37:23.052318+00:00", "meta": {"OBJECT_NAME": "COSMOS 2251 DEB", "OBJECT_ID": "1993-036BDU", "EPOCH": "2025-12-17T02:41:33.012960", "MEAN_MOTION": 14.55391753, "ECCENTRICITY": 0.00127941, "INCLINATION": 74.0416, "RA_OF_ASC_NODE": 146.2642, "ARG_OF_PERICENTER": 234.8109, "MEAN_ANOMALY": 125.1857, "EPHEMERIS_TYPE": 0, "CLASSIFICATION_TYPE": "U", "NORAD_CAT_ID": 36558, "ELEMENT_SET_NO": 999, "REV_AT_EPOCH": 85332, "BSTAR": 0.0007067154, "MEAN_MOTION_DOT": 3.045e-05, "MEAN_MOTION_DDOT": 0}, "tle": {"line1": "1 36558U 93036BDU 25351.11218765  .00003045  00000+0  70672-3 0  9991", "line2": "2 36558  74.0416 146.2642 0012794 234.8109 125.1857 14.55391753853329"}}, "geometry": {"type": "Point", "coordinates": [-54.16216998129537, 36.68623797466569]}}, {"type": "Feature", "properties": {"norad_id": 36559, "name": "COSMOS 2251 DEB", "group": "cosmos-2251-debris", "lat": -70.67107396691893, "lon": -130.80403465149976, "alt_km": 1027.3802058809551, "timestamp": "2025-12-21T09:37:23.052328+00:00", "meta": {"OBJECT_NAME": "COSMOS 2251 DEB", "OBJECT_ID": "1993-036BDV", "EPOCH": "2025-12-16T01:02:38.774976", "MEAN_MOTION": 13.95226172, "ECCENTRICITY": 0.0260446, "INCLINATION": 74.1323, "RA_OF_ASC_NODE": 4.1653, "ARG_OF_PERICENTER": 36.0043, "MEAN_ANOMALY": 325.8321, "EPHEMERIS_TYPE": 0, "CLASSIFICATION_TYPE": "U", "NORAD_CAT_ID": 36559, "ELEMENT_SET_NO": 999, "REV_AT_EPOCH": 81140, "BSTAR": 0.0020581095, "MEAN_MOTION_DOT": 3.672e-05, "MEAN_MOTION_DDOT": 0}, "tle": {"line1": "1 36559U 93036BDV 25350.04350434  .00003672  00000+0  20581-2 0  9992", "line2": "2 36559  74.1323   4.1653 0260446  36.0043 325.8321 13.95226172811403"}}, "geometry": {"type": "Point", "coordinates": [-130.80403465149976, -70.67107396691893]}}, {"type": "Feature", "properties": {"norad_id": 36614, "name": "COSMOS 2251 DEB", "group": "cosmos-2251-debris", "lat": -45.569952487429795, "lon": 141.04027147427303, "alt_km": 697.3112397557406, "timestamp": "2025-12-21T09:37:23.052338+00:00", "meta": {"OBJECT_NAME": "COSMOS 2251 DEB", "OBJECT_ID": "1993-036BEC", "EPOCH": "2025-12-20T17:24:05.102784", "MEAN_MOTION": 14.60353691, "ECCENTRICITY": 0.0015826, "INCLINATION": 74.0208, "RA_OF_ASC_NODE": 159.3271, "ARG_OF_PERICENTER": 229.1193, "MEAN_ANOMALY": 130.8602, "EPHEMERIS_TYPE": 0, "CLASSIFICATION_TYPE": "U", "NORAD_CAT_ID": 36614, "ELEMENT_SET_NO": 999, "REV_AT_EPOCH": 65729, "BSTAR": 0.00087623932, "MEAN_MOTION_DOT": 4.218e-05, "MEAN_MOTION_DDOT": 0}, "tle": {"line1": "1 36614U 93036BEC 25354.72505906  .00004218  00000+0  87624-3 0  9998", "line2": "2 36614  74.0208 159.3271 0015826 229.1193 130.8602 14.60353691657297"}}, "geometry": {"type": "Point", "coordinates": [141.04027147427303, -45.569952487429795]}}, {"type": "Feature", "properties": {"norad_id": 36622, "name": "COSMOS 2251 DEB", "group": "cosmos-2251-debris", "lat": 27.024323695960707, "lon": -59.915148286021115, "alt_km": 656.3514022368472, "timestamp": "2025-12-21T09:37:23.052348+00:00", "meta": {"OBJECT_NAME": "COSMOS 2251 DEB", "OBJECT_ID": "1993-036BEL", "EPOCH": "2025-12-21T02:25:32.891232", "MEAN_MOTION": 14.76266082, "ECCENTRICITY": 0.0068817, "INCLINATION": 74.0142, "RA_OF_ASC_NODE": 129.0805, "ARG_OF_PERICENTER": 262.8361, "MEAN_ANOMALY": 96.4986, "EPHEMERIS_TYPE": 0, "CLASSIFICATION_TYPE": "U", "NORAD_CAT_ID": 36622, "ELEMENT_SET_NO": 999, "REV_AT_EPOCH": 66873, "BSTAR": 0.00047291, "MEAN_MOTION_DOT": 3.371e-05, "MEAN_MOTION_DDOT": 0}, "tle": {"line1": "1 36622U 93036BEL 25355.10107513  .00003371  00000+0  47291-3 0  9997", "line2": "2 36622  74.0142 129.0805 0068817 262.8361  96.4986 14.76266082668736"}}, "geometry": {"type": "Point", "coordinates": [-59.915148286021115, 27.024323695960707]}}, {"type": "Feature", "properties": {"norad_id": 36632, "name": "COSMOS 2251 DEB", "group": "cosmos-2251-debris", "lat": 4.8827324575647575, "lon": -82.34711456314697, "alt_km": 727.5812967591919, "timestamp": "2025-12-21T09:37:23.052358+00:00", "meta": {"OBJECT_NAME": "COSMOS 2251 DEB", "OBJECT_ID": "1993-036BEW", "EPOCH": "2025-12-21T01:16:53.891328", "MEAN_MOTION": 14.43214407, "ECCENTRICITY": 0.0032638, "INCLINATION": 74.0029, "RA_OF_ASC_NODE": 276.8952, "ARG_OF_PERICENTER": 22.7567, "MEAN_ANOMALY": 337.5028, "EPHEMERIS_TYPE": 0, "CLASSIFICATION_TYPE": "U", "NORAD_CAT_ID": 36632, "ELEMENT_SET_NO": 999, "REV_AT_EPOCH": 65335, "BSTAR": 0.00052347, "MEAN_MOTION_DOT": 1.745e-05, "MEAN_MOTION_DDOT": 0}, "tle": {"line1": "1 36632U 93036BEW 25355.05340152  .00001745  00000+0  52347-3 0  9991", "line2": "2 36632  74.0029 276.8952 0032638  22.7567 337.5028 14.43214407653354"}}, "geometry": {"type": "Point", "coordinates": [-82.34711456314697, 4.8827324575647575]}}, {"type": "Feature", "properties": {"norad_id": 37084, "name": "COSMOS 2251 DEB", "group": "cosmos-2251-debris", "lat": 9.052245329514802, "lon": 146.42001265702538, "alt_km": 621.4038850111929, "timestamp": "2025-12-21T09:37:23.052368+00:00", "meta": {"OBJECT_NAME": "COSMOS 2251 DEB", "OBJECT_ID": "1993-036BFE", "EPOCH": "2025-12-21T01:34:58.963008", "MEAN_MOTION": 15.01108082, "ECCENTRICITY": 0.0097108, "INCLINATION": 74.0265, "RA_OF_ASC_NODE": 144.4866, "ARG_OF_PERICENTER": 223.0603, "MEAN_ANOMALY": 136.296, "EPHEMERIS_TYPE": 0, "CLASSIFICATION_TYPE": "U", "NORAD_CAT_ID": 37084, "ELEMENT_SET_NO": 999, "REV_AT_EPOCH": 66392, "BSTAR": 0.00041517, "MEAN_MOTION_DOT": 5.838e-05, "MEAN_MOTION_DDOT": 0}, "tle": {"line1": "1 37084U 93036BFE 25355.06596022  .00005838  00000+0  41517-3 0  9997", "line2": "2 37084  74.0265 144.4866 0097108 223.0603 136.2960 15.01108082663921"}}, "geometry": {"type": "Point", "coordinates": [146.42001265702538, 9.052245329514802]}}, {"type": "Feature", "properties": {"norad_id": 37085, "name": "COSMOS 2251 DEB", "group": "cosmos-2251-debris", "lat": -73.79926391148254, "lon": 99.4846318427182, "alt_km": 451.1612012150281, "timestamp": "2025-12-21T09:37:23.052378+00:00", "meta": {"OBJECT_NAME": "COSMOS 2251 DEB", "OBJECT_ID": "1993-036BFF", "EPOCH": "2025-12-13T09:00:31.802112", "MEAN_MOTION": 15.41681601, "ECCENTRICITY": 0.00213151, "INCLINATION": 73.9479, "RA_OF_ASC_NODE": 214.6598, "ARG_OF_PERICENTER": 52.8263, "MEAN_ANOMALY": 307.4887, "EPHEMERIS_TYPE": 0, "CLASSIFICATION_TYPE": "U", "NORAD_CAT_ID": 37085, "ELEMENT_SET_NO": 999, "REV_AT_EPOCH": 67147, "BSTAR": 0.0024657072, "MEAN_MOTION_DOT": 0.00106285, "MEAN_MOTION_DDOT": 0}, "tle": {"line1": "1 37085U 93036BFF 25347.37536808  .00106285  00000+0  24657-2 0  9992", "line2": "2 37085  73.9479 214.6598 0021315  52.8263 307.4887 15.41681601671472"}}, "geometry": {"type": "Point", "coordinates": [99.4846318427182, -73.79926391148254]}}]}